{
  "type": "FeatureCollection",
  "features": [
    {
      "type": "Feature",
      "properties": {
        "norad_id": 29780,
        "name": "FENGYUN 1C DEB",
        "group": "fengyun-1c-debris",
        "lat": -41.10314119640539,
        "lon": 73.94423279527494,
        "alt_km": 822.4202852391463,
        "timestamp": "2025-12-07T11:27:50.273469+00:00",
        "meta_object_name": "FENGYUN 1C DEB",
        "meta_object_id": "1999-025BW",
        "meta_epoch": "2025-12-06T12:27:30.121632",
        "meta_mean_motion": 14.20973868,
        "meta_eccentricity": 0.00400214,
        "meta_inclination": 99.2778,
        "meta_ra_of_asc_node": 261.1374,
        "meta_arg_of_pericenter": 146.3833,
        "meta_mean_anomaly": 213.9893,
        "meta_ephemeris_type": 0,
        "meta_classification_type": "U",
        "meta_norad_cat_id": 29780,
        "meta_element_set_no": 999,
        "meta_rev_at_epoch": 96990,
        "meta_bstar": 0.0028237791,
        "meta_mean_motion_dot": 6.124e-05,
        "meta_mean_motion_ddot": 0,
        "tle_line1": "1 29780U 99025BW  25340.51909863  .00006124  00000+0  28238-2 0  9993",
        "tle_line2": "2 29780  99.2778 261.1374 0040021 146.3833 213.9893 14.20973868969905"
      },
      "geometry": {
        "type": "Point",
        "coordinates": [
          73.94423279527494,
          -41.10314119640539
        ]
      }
    },
    {
      "type": "Feature",
      "properties": {
        "norad_id": 29781,
        "name": "FENGYUN 1C DEB",
        "group": "fengyun-1c-debris",
        "lat": 67.99733045844101,
        "lon": 178.35136230204145,
        "alt_km": 857.6717655690409,
        "timestamp": "2025-12-07T11:27:50.273479+00:00",
        "meta_object_name": "FENGYUN 1C DEB",
        "meta_object_id": "1999-025BX",
        "meta_epoch": "2025-12-06T23:14:30.954048",
        "meta_mean_motion": 14.05209569,
        "meta_eccentricity": 0.00716026,
        "meta_inclination": 98.8095,
        "meta_ra_of_asc_node": 335.2891,
        "meta_arg_of_pericenter": 189.2599,
        "meta_mean_anomaly": 226.9928,
        "meta_ephemeris_type": 0,
        "meta_classification_type": "U",
        "meta_norad_cat_id": 29781,
        "meta_element_set_no": 999,
        "meta_rev_at_epoch": 96562,
        "meta_bstar": 0.00087007571,
        "meta_mean_motion_dot": 1.396e-05,
        "meta_mean_motion_ddot": 0,
        "tle_line1": "1 29781U 99025BX  25340.96841382  .00001396  00000+0  87008-3 0  9991",
        "tle_line2": "2 29781  98.8095 335.2891 0071602 189.2599 226.9928 14.05209569965625"
      },
      "geometry": {
        "type": "Point",
        "coordinates": [
          178.35136230204145,
          67.99733045844101
        ]
      }
    },
    {
      "type": "Feature",
      "properties": {
        "norad_id": 29782,
        "name": "FENGYUN 1C DEB",
        "group": "fengyun-1c-debris",
        "lat": 26.31028106154785,
        "lon": 30.453808515349202,
        "alt_km": 892.003592117012,
        "timestamp": "2025-12-07T11:27:50.273489+00:00",
        "meta_object_name": "FENGYUN 1C DEB",
        "meta_object_id": "1999-025BY",
        "meta_epoch": "2025-12-06T17:11:42.074016",
        "meta_mean_motion": 14.11619719,
        "meta_eccentricity": 0.00551749,
        "meta_inclination": 99.1002,
        "meta_ra_of_asc_node": 34.2276,
        "meta_arg_of_pericenter": 219.537,
        "meta_mean_anomaly": 260.9257,
        "meta_ephemeris_type": 0,
        "meta_classification_type": "U",
        "meta_norad_cat_id": 29782,
        "meta_element_set_no": 999,
        "meta_rev_at_epoch": 96586,
        "meta_bstar": 0.0023802975,
        "meta_mean_motion_dot": 4.345e-05,
        "meta_mean_motion_ddot": 0,
        "tle_line1": "1 29782U 99025BY  25340.71645919  .00004345  00000+0  23803-2 0  9992",
        "tle_line2": "2 29782  99.1002  34.2276 0055174 219.5370 260.9257 14.11619719965869"
      },
      "geometry": {
        "type": "Point",
        "coordinates": [
          30.453808515349202,
          26.31028106154785
        ]
      }
    },
    {
      "type": "Feature",
      "properties": {
        "norad_id": 29784,
        "name": "FENGYUN 1C DEB",
        "group": "fengyun-1c-debris",
        "lat": -0.9544002105702847,
        "lon": 79.97440465405792,
        "alt_km": 821.4692734034352,
        "timestamp": "2025-12-07T11:27:50.273500+00:00",
        "meta_object_name": "FENGYUN 1C DEB",
        "meta_object_id": "1999-025CA",
        "meta_epoch": "2025-12-06T17:57:41.874048",
        "meta_mean_motion": 14.30556141,
        "meta_eccentricity": 0.00597401,
        "meta_inclination": 98.9449,
        "meta_ra_of_asc_node": 259.375,
        "meta_arg_of_pericenter": 315.059,
        "meta_mean_anomaly": 72.7048,
        "meta_ephemeris_type": 0,
        "meta_classification_type": "U",
        "meta_norad_cat_id": 29784,
        "meta_element_set_no": 999,
        "meta_rev_at_epoch": 98274,
        "meta_bstar": 0.0011193702,
        "meta_mean_motion_dot": 2.93e-05,
        "meta_mean_motion_ddot": 0,
        "tle_line1": "1 29784U 99025CA  25340.74840132  .00002930  00000+0  11194-2 0  9999",
        "tle_line2": "2 29784  98.9449 259.3750 0059740 315.0590  72.7048 14.30556141982742"
      },
      "geometry": {
        "type": "Point",
        "coordinates": [
          79.97440465405792,
          -0.9544002105702847
        ]
      }
    },
    {
      "type": "Feature",
      "properties": {
        "norad_id": 29786,
        "name": "FENGYUN 1C DEB",
        "group": "fengyun-1c-debris",
        "lat": 12.812246401232219,
        "lon": -179.14083794362205,
        "alt_km": 912.4939566619842,
        "timestamp": "2025-12-07T11:27:50.273510+00:00",
        "meta_object_name": "FENGYUN 1C DEB",
        "meta_object_id": "1999-025CC",
        "meta_epoch": "2025-12-06T23:02:55.643136",
        "meta_mean_motion": 14.09078865,
        "meta_eccentricity": 0.00771962,
        "meta_inclination": 98.736,
        "meta_ra_of_asc_node": 358.3537,
        "meta_arg_of_pericenter": 319.5641,
        "meta_mean_anomaly": 105.156,
        "meta_ephemeris_type": 0,
        "meta_classification_type": "U",
        "meta_norad_cat_id": 29786,
        "meta_element_set_no": 999,
        "meta_rev_at_epoch": 97079,
        "meta_bstar": 0.00025373925,
        "meta_mean_motion_dot": 4.09e-06,
        "meta_mean_motion_ddot": 0,
        "tle_line1": "1 29786U 99025CC  25340.96036624  .00000409  00000+0  25374-3 0  9993",
        "tle_line2": "2 29786  98.7360 358.3537 0077196 319.5641 105.1560 14.09078865970798"
      },
      "geometry": {
        "type": "Point",
        "coordinates": [
          -179.14083794362205,
          12.812246401232219
        ]
      }
    },
    {
      "type": "Feature",
      "properties": {
        "norad_id": 29788,
        "name": "FENGYUN 1C DEB",
        "group": "fengyun-1c-debris",
        "lat": 37.17574035947458,
        "lon": -120.17693631767928,
        "alt_km": 787.9178050317723,
        "timestamp": "2025-12-07T11:27:50.273521+00:00",
        "meta_object_name": "FENGYUN 1C DEB",
        "meta_object_id": "1999-025CE",
        "meta_epoch": "2025-12-06T21:33:31.711680",
        "meta_mean_motion": 14.25904826,
        "meta_eccentricity": 0.00429146,
        "meta_inclination": 98.7843,
        "meta_ra_of_asc_node": 52.5082,
        "meta_arg_of_pericenter": 205.4439,
        "meta_mean_anomaly": 204.7656,
        "meta_ephemeris_type": 0,
        "meta_classification_type": "U",
        "meta_norad_cat_id": 29788,
        "meta_element_set_no": 999,
        "meta_rev_at_epoch": 97272,
        "meta_bstar": 0.0026532756,
        "meta_mean_motion_dot": 6.341e-05,
        "meta_mean_motion_ddot": 0,
        "tle_line1": "1 29788U 99025CE  25340.89828370  .00006341  00000+0  26533-2 0  9992",
        "tle_line2": "2 29788  98.7843  52.5082 0042914 205.4439 204.7656 14.25904826972722"
      },
      "geometry": {
        "type": "Point",
        "coordinates": [
          -120.17693631767928,
          37.17574035947458
        ]
      }
    },
    {
      "type": "Feature",
      "properties": {
        "norad_id": 29789,
        "name": "FENGYUN 1C DEB",
        "group": "fengyun-1c-debris",
        "lat": -21.169727496465917,
        "lon": -19.205187739135482,
        "alt_km": 1058.0108421415107,
        "timestamp": "2025-12-07T11:27:50.273531+00:00",
        "meta_object_name": "FENGYUN 1C DEB",
        "meta_object_id": "1999-025CF",
        "meta_epoch": "2025-12-05T10:52:30.940032",
        "meta_mean_motion": 13.54214224,
        "meta_eccentricity": 0.02983807,
        "meta_inclination": 99.452,
        "meta_ra_of_asc_node": 162.5558,
        "meta_arg_of_pericenter": 297.1839,
        "meta_mean_anomaly": 122.7571,
        "meta_ephemeris_type": 0,
        "meta_classification_type": "U",
        "meta_norad_cat_id": 29789,
        "meta_element_set_no": 999,
        "meta_rev_at_epoch": 92889,
        "meta_bstar": 0.0021158118,
        "meta_mean_motion_dot": 1.866e-05,
        "meta_mean_motion_ddot": 0,
        "tle_line1": "1 29789U 99025CF  25339.45313588  .00001866  00000+0  21158-2 0  9998",
        "tle_line2": "2 29789  99.4520 162.5558 0298380 297.1839 122.7571 13.54214224928896"
      },
      "geometry": {
        "type": "Point",
        "coordinates": [
          -19.205187739135482,
          -21.169727496465917
        ]
      }
    }
  ]
}